STARLINK-5822           
1 57064U 23088S   26169.31651117  .00000625  00000+0  32261-4 0  9992
2 57064  43.0043 262.2251 0002657 284.0666  75.9890 15.27585007164740
STARLINK-5830           
1 57065U 23088T   26168.74424529  .00001331  00000+0  57884-4 0  9997
2 57065  42.9992 269.0483 0001026 269.3897  90.6837 15.27584600164614
STARLINK-5827           
1 57066U 23088U   26167.55623487 -.00001668  00000+0 -51117-4 0  9998
2 57066  43.0108 272.2381 0001834 272.3943  87.6699 15.27563900164478
STARLINK-5824           
1 57067U 23088V   26166.58828226  .00000865  00000+0  40975-4 0  9995
2 57067  43.0035 277.8618 0002124 276.7246  83.3364 15.27579233165300
STARLINK-5844           
1 57068U 23088W   26167.57500580  .00000116  00000+0  13716-4 0  9998
2 57068  43.0020 275.7828 0000524 282.1987  77.8806 15.27579278165410
STARLINK-5821           
1 57069U 23088X   26167.54147337 -.00001045  00000+0 -28442-4 0  9999
2 57069  42.9978 258.2744 0002051 295.0401  65.0238 15.27569342165447
STARLINK-5828           
1 57070U 23088Y   26169.28118977 -.00000012  00000+0  91088-5 0  9991
2 57070  43.0012 248.1171 0001937 278.7514  81.3118 15.27575707165885
STARLINK-5834           
1 57071U 23088Z   26169.23122859 -.00000234  00000+0  10324-5 0  9991
2 57071  43.0031 248.6051 0001916 276.6004  83.4630 15.27574030165708
STARLINK-5843           
1 57072U 23088AA  26169.28890360  .00000334  00000+0  21676-4 0  9997
2 57072  43.0011 248.1744 0001864 269.3777  90.6861 15.27576862164901
STARLINK-5838           
1 57073U 23088AB  26168.69656609  .00000156  00000+0  15187-4 0  9990
2 57073  43.0028 251.4684 0001842 275.8638  84.2004 15.27579353164810
STARLINK-5773           
1 57074U 23088AC  26166.59036105  .00001504  00000+0  64163-4 0  9997
2 57074  43.0016 281.2911 0001350 263.3983  96.6715 15.27581552165261
STARLINK-5542           
1 57075U 23088AD  26167.93876721  .00000397  00000+0  23944-4 0  9994
2 57075  43.0010 255.2408 0001148 273.6711  86.4009 15.27575728165683
STARLINK-6155           
1 57076U 23088AE  26169.22737421 -.00000102  00000+0  58155-5 0  9990
2 57076  42.9994 248.5709 0001594 269.1736  90.8933 15.27573967165705
STARLINK-6194           
1 57077U 23088AF  26167.92991893  .00000170  00000+0  15701-4 0  9994
2 57077  43.0038 256.0347 0001278 272.3754  87.6952 15.27576052165831
STARLINK-6245           
1 57079U 23088AH  26167.94904713  .00000064  00000+0  11846-4 0  9991
2 57079  43.0031 255.3215 0001142 272.5309  87.5412 15.27575794165685
STARLINK-6243           
1 57080U 23088AJ  26167.53374362  .00000219  00000+0  17493-4 0  9995
2 57080  43.0016 258.2184 0001359 272.9274  87.1422 15.27578162165445
STARLINK-6184           
1 57081U 23088AK  26167.95675441  .00000403  00000+0  24150-4 0  9997
2 57081  43.0018 255.3784 0001007 290.4784  69.5959 15.27579030165683
STARLINK-6248           
1 57082U 23088AL  26167.94262136  .00000132  00000+0  14313-4 0  9999
2 57082  43.0012 255.2699 0001333 282.2320  77.8383 15.27578081165687
STARLINK-6253           
1 57083U 23088AM  26169.27862309 -.00000535  00000+0 -99125-5 0  9990
2 57083  43.0022 248.0871 0001463 275.5741  84.4944 15.27572347165885
STARLINK-6240           
1 57084U 23088AN  26169.26063376 -.00000353  00000+0 -33200-5 0  9997
2 57084  43.0024 247.9641 0001029 269.0317  91.0417 15.27573111165885
STARLINK-6232           
1 57085U 23088AP  26167.93748351  .00001528  00000+0  65048-4 0  9990
2 57085  43.0006 255.2298 0000805 265.9767  94.0993 15.27572909165685
STARLINK-6247           
1 57086U 23088AQ  26168.67985670  .00000690  00000+0  34614-4 0  9994
2 57086  43.0041 251.3428 0001755 286.5677  73.4982 15.27581945165792
STARLINK-6251           
1 57087U 23088AR  26167.94138317 -.00003706  00000+0 -12542-3 0  9990
2 57087  43.0047 255.2569 0000223 188.1032 171.9816 15.27533257165680
STARLINK-6257           
1 57088U 23088AS  26167.96446604  .00000274  00000+0  19479-4 0  9996
2 57088  43.0069 255.4303 0001681 284.5033  75.5633 15.27577808165680
STARLINK-6259           
1 57089U 23088AT  26169.26705371  .00000689  00000+0  34532-4 0  9998
2 57089  42.9994 248.0044 0000325 299.3167  60.7652 15.27581681165885
STARLINK-6254           
1 57090U 23088AU  26167.94515563 -.00008821  00000+0 -31119-3 0  9990
2 57090  42.9967 255.2811 0002220 267.8389  92.2208 15.27600772165689
STARLINK-6262           
1 57091U 23088AV  26168.67086361  .00000204  00000+0  16951-4 0  9994
2 57091  43.0020 251.2702 0001071 276.8763  83.1966 15.27578062165794
STARLINK-6225           
1 57092U 23088AW  26167.94776378 -.00000148  00000+0  41609-5 0  9995
2 57092  43.0016 255.3052 0001096 279.5317  80.5410 15.27578784165689
STARLINK-6229           
1 57093U 23088AX  26169.27092077  .00001176  00000+0  52277-4 0  9994
2 57093  43.0030 248.0327 0001565 305.2685  54.8020 15.27572836165881
STARLINK-6235           
1 57094U 23088AY  26169.27476055  .00000290  00000+0  20091-4 0  9992
2 57094  43.0035 248.0572 0001809 290.5754  69.4903 15.27578103165888
