OBJECT_NAME,OBJECT_ID,EPOCH,MEAN_MOTION,ECCENTRICITY,INCLINATION,RA_OF_ASC_NODE,ARG_OF_PERICENTER,MEAN_ANOMALY,EPHEMERIS_TYPE,CLASSIFICATION_TYPE,NORAD_CAT_ID,ELEMENT_SET_NO,REV_AT_EPOCH,BSTAR,MEAN_MOTION_DOT,MEAN_MOTION_DDOT
STARLINK-5822,2023-088S,2026-06-18T07:35:46.565088,15.27585007,.00026577,43.0043,262.2251,284.0666,75.9890,0,U,57064,999,16474,.32261037E-4,.625E-5,0
STARLINK-5830,2023-088T,2026-06-17T17:51:42.793056,15.27584600,.00010268,42.9992,269.0483,269.3897,90.6837,0,U,57065,999,16461,.57884263E-4,.1331E-4,0
STARLINK-5827,2023-088U,2026-06-16T13:20:58.692768,15.27563900,.00018348,43.0108,272.2381,272.3943,87.6699,0,U,57066,999,16447,-.51116842E-4,-.1668E-4,0
STARLINK-5824,2023-088V,2026-06-15T14:07:07.587264,15.27579233,.0002124,43.0035,277.8618,276.7246,83.3364,0,U,57067,999,16530,.40975134E-4,.865E-5,0
STARLINK-5844,2023-088W,2026-06-16T13:48:00.501120,15.27579278,.0000524,43.0020,275.7828,282.1987,77.8806,0,U,57068,999,16541,.13716E-4,.116E-5,0
STARLINK-5821,2023-088X,2026-06-16T12:59:43.299168,15.27569342,.00020514,42.9978,258.2744,295.0401,65.0238,0,U,57069,999,16544,-.28441705E-4,-.1045E-4,0
STARLINK-5828,2023-088Y,2026-06-18T06:44:54.796128,15.27575707,.00019374,43.0012,248.1171,278.7514,81.3118,0,U,57070,999,16588,.9108755E-5,-.12E-6,0
STARLINK-5834,2023-088Z,2026-06-18T05:32:58.150176,15.27574030,.00019168,43.0031,248.6051,276.6004,83.4630,0,U,57071,999,16570,.1032375E-5,-.234E-5,0
STARLINK-5843,2023-088AA,2026-06-18T06:56:01.271040,15.27576862,.00018646,43.0011,248.1744,269.3777,90.6861,0,U,57072,999,16490,.21675912E-4,.334E-5,0
STARLINK-5838,2023-088AB,2026-06-17T16:43:03.310176,15.27579353,.00018427,43.0028,251.4684,275.8638,84.2004,0,U,57073,999,16481,.15187492E-4,.156E-5,0
STARLINK-5773,2023-088AC,2026-06-15T14:10:07.194720,15.27581552,.00013504,43.0016,281.2911,263.3983,96.6715,0,U,57074,999,16526,.64162534E-4,.1504E-4,0
STARLINK-5542,2023-088AD,2026-06-16T22:31:49.486944,15.27575728,.0001148,43.0010,255.2408,273.6711,86.4009,0,U,57075,999,16568,.23943552E-4,.397E-5,0
STARLINK-6155,2023-088AE,2026-06-18T05:27:25.131744,15.27573967,.00015948,42.9994,248.5709,269.1736,90.8933,0,U,57076,999,16570,.5815499E-5,-.102E-5,0
STARLINK-6194,2023-088AF,2026-06-16T22:19:04.995552,15.27576052,.00012786,43.0038,256.0347,272.3754,87.6952,0,U,57077,999,16583,.15701495E-4,.17E-5,0
STARLINK-6245,2023-088AH,2026-06-16T22:46:37.672032,15.27575794,.00011428,43.0031,255.3215,272.5309,87.5412,0,U,57079,999,16568,.11845517E-4,.64E-6,0
STARLINK-6243,2023-088AJ,2026-06-16T12:48:35.448768,15.27578162,.00013599,43.0016,258.2184,272.9274,87.1422,0,U,57080,999,16544,.17493037E-4,.219E-5,0
STARLINK-6184,2023-088AK,2026-06-16T22:57:43.581024,15.27579030,.0001007,43.0018,255.3784,290.4784,69.5959,0,U,57081,999,16568,.24149922E-4,.403E-5,0
STARLINK-6248,2023-088AL,2026-06-16T22:37:22.485504,15.27578081,.00013332,43.0012,255.2699,282.2320,77.8383,0,U,57082,999,16568,.14312708E-4,.132E-5,0
STARLINK-6253,2023-088AM,2026-06-18T06:41:13.034976,15.27572347,.00014635,43.0022,248.0871,275.5741,84.4944,0,U,57083,999,16588,-.9912452E-5,-.535E-5,0
STARLINK-6240,2023-088AN,2026-06-18T06:15:18.756864,15.27573111,.00010291,43.0024,247.9641,269.0317,91.0417,0,U,57084,999,16588,-.3320023E-5,-.353E-5,0
STARLINK-6232,2023-088AP,2026-06-16T22:29:58.575264,15.27572909,.00008052,43.0006,255.2298,265.9767,94.0993,0,U,57085,999,16568,.6504768E-4,.1528E-4,0
STARLINK-6247,2023-088AQ,2026-06-17T16:18:59.618880,15.27581945,.00017552,43.0041,251.3428,286.5677,73.4982,0,U,57086,999,16579,.34614098E-4,.69E-5,0
STARLINK-6251,2023-088AR,2026-06-16T22:35:35.505888,15.27533257,.00002237,43.0047,255.2569,188.1032,171.9816,0,U,57087,999,16568,-.1254197E-3,-.3706E-4,0
STARLINK-6257,2023-088AS,2026-06-16T23:08:49.865856,15.27577808,.00016812,43.0069,255.4303,284.5033,75.5633,0,U,57088,999,16568,.1947867E-4,.274E-5,0
STARLINK-6259,2023-088AT,2026-06-18T06:24:33.440544,15.27581681,.00003257,42.9994,248.0044,299.3167,60.7652,0,U,57089,999,16588,.34532433E-4,.689E-5,0
STARLINK-6254,2023-088AU,2026-06-16T22:41:01.446432,15.27600772,.00022209,42.9967,255.2811,267.8389,92.2208,0,U,57090,999,16568,-.3111878E-3,-.8821E-4,0
STARLINK-6262,2023-088AV,2026-06-17T16:06:02.615904,15.27578062,.00010713,43.0020,251.2702,276.8763,83.1966,0,U,57091,999,16579,.16951373E-4,.204E-5,0
STARLINK-6225,2023-088AW,2026-06-16T22:44:46.790592,15.27578784,.00010965,43.0016,255.3052,279.5317,80.5410,0,U,57092,999,16568,.4160878E-5,-.148E-5,0
STARLINK-6229,2023-088AX,2026-06-18T06:30:07.554528,15.27572836,.0001565,43.0030,248.0327,305.2685,54.8020,0,U,57093,999,16588,.52277324E-4,.1176E-4,0
STARLINK-6235,2023-088AY,2026-06-18T06:35:39.311520,15.27578103,.00018098,43.0035,248.0572,290.5754,69.4903,0,U,57094,999,16588,.20090636E-4,.29E-5,0
